[
    {
        "Altitude(m)": 705882.4485871887,
        "Argument of Periapsis(deg)": 0.0011390121186627068,
        "Eccentricity": 0.0,
        "Inclination(deg)": 45.0,
        "Latitude(deg)": -12.414983364636068,
        "Longitude(deg)": -7.402036051759028,
        "Mean Anomaly(deg)": -162.48307833525197,
        "RAAN(deg)": 259.99892480585413,
        "Satellite Name": "Constellation 1 1156",
        "Satellite Number": 1156,
        "Semi-Major Axis(m)": 7083131.272910544,
        "Time(s)": 19
    },
    {
        "Altitude(m)": 705893.4036317788,
        "Argument of Periapsis(deg)": 0.0011989601249081123,
        "Eccentricity": 0.0,
        "Inclination(deg)": 45.0,
        "Latitude(deg)": -12.457103004941837,
        "Longitude(deg)": -7.361243306700372,
        "Mean Anomaly(deg)": -162.422377195002,
        "RAAN(deg)": 259.9988682166886,
        "Satellite Name": "Constellation 1 1156",
        "Satellite Number": 1156,
        "Semi-Major Axis(m)": 7083131.272910544,
        "Time(s)": 20
    },
    {
        "Altitude(m)": 705904.3736609985,
        "Argument of Periapsis(deg)": 0.001258908131153518,
        "Eccentricity": 0.0,
        "Inclination(deg)": 45.0,
        "Latitude(deg)": -12.49921496275732,
        "Longitude(deg)": -7.320436177707664,
        "Mean Anomaly(deg)": -162.36167605475214,
        "RAAN(deg)": 259.998811627523,
        "Satellite Name": "Constellation 1 1156",
        "Satellite Number": 1156,
        "Semi-Major Axis(m)": 7083131.272910544,
        "Time(s)": 21
    },
    {
        "Altitude(m)": 705915.3586432992,
        "Argument of Periapsis(deg)": 0.0013188561373989236,
        "Eccentricity": 0.0,
        "Inclination(deg)": 45.0,
        "Latitude(deg)": -12.541319209286176,
        "Longitude(deg)": -7.279614780392999,
        "Mean Anomaly(deg)": -162.3009749145022,
        "RAAN(deg)": 259.9987550383575,
        "Satellite Name": "Constellation 1 1156",
        "Satellite Number": 1156,
        "Semi-Major Axis(m)": 7083131.272910544,
        "Time(s)": 22
    },
    {
        "Altitude(m)": 705926.3585470468,
        "Argument of Periapsis(deg)": 0.0013788041436443293,
        "Eccentricity": 0.0,
        "Inclination(deg)": 45.0,
        "Latitude(deg)": -12.583415715703271,
        "Longitude(deg)": -7.2387787260506435,
        "Mean Anomaly(deg)": -162.24027377425236,
        "RAAN(deg)": 259.9986984491919,
        "Satellite Name": "Constellation 1 1156",
        "Satellite Number": 1156,
        "Semi-Major Axis(m)": 7083131.272910544,
        "Time(s)": 23
    },
    {
        "Altitude(m)": 705937.3733405512,
        "Argument of Periapsis(deg)": 0.001438752149889735,
        "Eccentricity": 0.0,
        "Inclination(deg)": 45.0,
        "Latitude(deg)": -12.625504453157014,
        "Longitude(deg)": -7.197928130238807,
        "Mean Anomaly(deg)": -162.17957263400243,
        "RAAN(deg)": 259.99864186002634,
        "Satellite Name": "Constellation 1 1156",
        "Satellite Number": 1156,
        "Semi-Major Axis(m)": 7083131.272910544,
        "Time(s)": 24
    },
    {
        "Altitude(m)": 705948.402992035,
        "Argument of Periapsis(deg)": 0.0014987001561351404,
        "Eccentricity": 0.0,
        "Inclination(deg)": 45.0,
        "Latitude(deg)": -12.66758539276739,
        "Longitude(deg)": -7.157062940391767,
        "Mean Anomaly(deg)": -162.11887149375255,
        "RAAN(deg)": 259.99858527086076,
        "Satellite Name": "Constellation 1 1156",
        "Satellite Number": 1156,
        "Semi-Major Axis(m)": 7083131.272910544,
        "Time(s)": 25
    },
    {
        "Altitude(m)": 705959.4474696498,
        "Argument of Periapsis(deg)": 0.001558648162380546,
        "Eccentricity": 0.0,
        "Inclination(deg)": 45.0,
        "Latitude(deg)": -12.70965850562675,
        "Longitude(deg)": -7.116183103916551,
        "Mean Anomaly(deg)": -162.05817035350267,
        "RAAN(deg)": 259.9985286816952,
        "Satellite Name": "Constellation 1 1156",
        "Satellite Number": 1156,
        "Semi-Major Axis(m)": 7083131.272910544,
        "Time(s)": 26
    },
    {
        "Altitude(m)": 705970.5067414799,
        "Argument of Periapsis(deg)": 0.0016185961686259519,
        "Eccentricity": 0.0,
        "Inclination(deg)": 45.0,
        "Latitude(deg)": -12.751723762799267,
        "Longitude(deg)": -7.075288568193207,
        "Mean Anomaly(deg)": -161.99746921325274,
        "RAAN(deg)": 259.99847209252965,
        "Satellite Name": "Constellation 1 1156",
        "Satellite Number": 1156,
        "Semi-Major Axis(m)": 7083131.272910544,
        "Time(s)": 27
    },
    {
        "Altitude(m)": 705981.5807755407,
        "Argument of Periapsis(deg)": 0.0016785441748713573,
        "Eccentricity": 0.0,
        "Inclination(deg)": 45.0,
        "Latitude(deg)": -12.793781135321083,
        "Longitude(deg)": -7.034379280574407,
        "Mean Anomaly(deg)": -161.93676807300284,
        "RAAN(deg)": 259.9984155033641,
        "Satellite Name": "Constellation 1 1156",
        "Satellite Number": 1156,
        "Semi-Major Axis(m)": 7083131.272910544,
        "Time(s)": 28
    },
    {
        "Altitude(m)": 705992.66953976,
        "Argument of Periapsis(deg)": 0.001738492181116763,
        "Eccentricity": 0.0,
        "Inclination(deg)": 45.0,
        "Latitude(deg)": -12.835830594200067,
        "Longitude(deg)": -6.993455188385766,
        "Mean Anomaly(deg)": -161.87606693275296,
        "RAAN(deg)": 259.9983589141985,
        "Satellite Name": "Constellation 1 1156",
        "Satellite Number": 1156,
        "Semi-Major Axis(m)": 7083131.272910544,
        "Time(s)": 29
    },
    {
        "Altitude(m)": 706003.7730020091,
        "Argument of Periapsis(deg)": 0.0017984401873621684,
        "Eccentricity": 0.0,
        "Inclination(deg)": 45.0,
        "Latitude(deg)": -12.877872110416124,
        "Longitude(deg)": -6.952516407022402,
        "Mean Anomaly(deg)": -161.81536579250306,
        "RAAN(deg)": 259.9983023250329,
        "Satellite Name": "Constellation 1 1156",
        "Satellite Number": 1156,
        "Semi-Major Axis(m)": 7083131.272910544,
        "Time(s)": 30
    },
    {
        "Altitude(m)": 706014.8911300752,
        "Argument of Periapsis(deg)": 0.0018583881936075745,
        "Eccentricity": 0.0,
        "Inclination(deg)": 45.0,
        "Latitude(deg)": -12.919905654919734,
        "Longitude(deg)": -6.911562547561033,
        "Mean Anomaly(deg)": -161.75466465225315,
        "RAAN(deg)": 259.9982457358674,
        "Satellite Name": "Constellation 1 1156",
        "Satellite Number": 1156,
        "Semi-Major Axis(m)": 7083131.272910544,
        "Time(s)": 31
    },
    {
        "Altitude(m)": 706026.023891678,
        "Argument of Periapsis(deg)": 0.0019183361998529795,
        "Eccentricity": 0.0,
        "Inclination(deg)": 45.0,
        "Latitude(deg)": -12.961931198633874,
        "Longitude(deg)": -6.87059372534198,
        "Mean Anomaly(deg)": -161.69396351200322,
        "RAAN(deg)": 259.9981891467018,
        "Satellite Name": "Constellation 1 1156",
        "Satellite Number": 1156,
        "Semi-Major Axis(m)": 7083131.272910544,
        "Time(s)": 32
    },
    {
        "Altitude(m)": 706037.1712544655,
        "Argument of Periapsis(deg)": 0.0019782842060983856,
        "Eccentricity": 0.0,
        "Inclination(deg)": 45.0,
        "Latitude(deg)": -13.003948712452523,
        "Longitude(deg)": -6.829609887581133,
        "Mean Anomaly(deg)": -161.63326237175337,
        "RAAN(deg)": 259.9981325575362,
        "Satellite Name": "Constellation 1 1156",
        "Satellite Number": 1156,
        "Semi-Major Axis(m)": 7083131.272910544,
        "Time(s)": 33
    },
    {
        "Altitude(m)": 706048.3331860167,
        "Argument of Periapsis(deg)": 0.0020382322123437906,
        "Eccentricity": 0.0,
        "Inclination(deg)": 45.0,
        "Latitude(deg)": -13.045958167240805,
        "Longitude(deg)": -6.788610981466801,
        "Mean Anomaly(deg)": -161.5725612315035,
        "RAAN(deg)": 259.99807596837064,
        "Satellite Name": "Constellation 1 1156",
        "Satellite Number": 1156,
        "Semi-Major Axis(m)": 7083131.272910544,
        "Time(s)": 34
    },
    {
        "Altitude(m)": 706059.5096538331,
        "Argument of Periapsis(deg)": 0.002098180218589197,
        "Eccentricity": 0.0,
        "Inclination(deg)": 45.0,
        "Latitude(deg)": -13.087959533835301,
        "Longitude(deg)": -6.747596954159659,
        "Mean Anomaly(deg)": -161.51186009125348,
        "RAAN(deg)": 259.99801937920506,
        "Satellite Name": "Constellation 1 1156",
        "Satellite Number": 1156,
        "Semi-Major Axis(m)": 7083131.272910544,
        "Time(s)": 35
    },
    {
        "Altitude(m)": 706070.7006253479,
        "Argument of Periapsis(deg)": 0.002158128224834602,
        "Eccentricity": 0.0,
        "Inclination(deg)": 45.0,
        "Latitude(deg)": -13.129952783043125,
        "Longitude(deg)": -6.706567752792925,
        "Mean Anomaly(deg)": -161.45115895100363,
        "RAAN(deg)": 259.99796279003954,
        "Satellite Name": "Constellation 1 1156",
        "Satellite Number": 1156,
        "Semi-Major Axis(m)": 7083131.272910544,
        "Time(s)": 36
    },
    {
        "Altitude(m)": 706081.9060679224,
        "Argument of Periapsis(deg)": 0.002218076231080008,
        "Eccentricity": 0.0,
        "Inclination(deg)": 45.0,
        "Latitude(deg)": -13.17193788564307,
        "Longitude(deg)": -6.665523492568829,
        "Mean Anomaly(deg)": -161.39045781075382,
        "RAAN(deg)": 259.99790620087396,
        "Satellite Name": "Constellation 1 1156",
        "Satellite Number": 1156,
        "Semi-Major Axis(m)": 7083131.272910544,
        "Time(s)": 37
    }
]